satname,norad_id,inclination_deg,eccentricity,mean_motion_rev_per_day,perigee_km,apogee_km,l1,l2
STARLINK-1202,45183,53.1582,0.0001168,15.30201314,474.4106749915227,476.0116171184418,1 45183U 20012F   26087.89105212  .00006574  00000+0  23388-3 0  9995,2 45183  53.1582 310.0634 0001168  85.8683 274.2451 15.30201314337893
STARLINK-1216,45185,53.1592,0.0001329,15.30205128,474.28894972324906,476.1105666335734,1 45185U 20012H   26088.01219565  .00004688  00000+0  17029-3 0  9998,2 45185  53.1592 309.4783 0001329  83.8696 276.2456 15.30205128337854
STARLINK-1225,45187,53.1626,0.000145,15.30185725,474.2639500972027,476.2514345579784,1 45187U 20012K   26088.00912167 -.00001506  00000+0 -38747-4 0  9996,2 45187  53.1626 309.9335 0001450 100.5620 259.5545 15.30185725337898
STARLINK-1230,45189,53.1594,0.0001305,15.30198349,474.3256359237903,476.11436210053307,1 45189U 20012M   26087.88796476  .00002515  00000+0  97015-4 0  9998,2 45189  53.1594 310.5561 0001305  87.6066 272.5084 15.30198349335102
STARLINK-1234,45190,53.0394,0.0006372,15.65685685,366.9667385842795,375.5681796269637,1 45190U 20012N   26087.81799976  .00068121  00000+0  66180-3 0  9994,2 45190  53.0394 231.5063 0006372 353.3697   6.7232 15.65685685338873
STARLINK-1269,45197,53.16,8.12e-05,15.30286804,474.39942942989273,475.5123717169445,1 45197U 20012V   26088.01538984 -.00021876  00000+0 -72670-3 0  9993,2 45197  53.1600 309.8235 0000812 100.7494 259.3598 15.30286804337875
STARLINK-1154,45198,53.0463,0.000517,15.49046106,416.0008894357934,423.02966188882874,1 45198U 20012W   26088.00002314  .00109691  00000+0  19699-2 0  9997,2 45198  53.0463 277.6685 0005170 165.8205 226.8035 15.49046106  5862
STARLINK-1199,45201,53.1578,0.0001114,15.30207929,474.4279341735655,475.9548557399612,1 45201U 20012Z   26087.98470369  .00003331  00000+0  12449-3 0  9998,2 45201  53.1578 294.2130 0001114  87.7219 272.3909 15.30207929338111
STARLINK-1209,45206,53.045,0.0008573,15.54460455,397.90738645901183,409.535560998067,1 45206U 20012AE  26088.11251582  .00098538  00000+0  14595-2 0  9999,2 45206  53.0450 239.8434 0008573 336.0338  24.0272 15.54460455337939
STARLINK-1231,45212,53.0417,0.0003731,15.22640892,495.3130845529331,500.44396733839403,1 45212U 20012AL  26087.85522571  .00043682  00000+0  18563-2 0  9994,2 45212  53.0417 287.6572 0003731 165.0527 195.0580 15.22640892338149
STARLINK-1271,45217,53.1586,0.0001212,15.30210025,474.35451409678626,476.01575938273163,1 45217U 20012AR  26087.98260916  .00001412  00000+0  59765-4 0  9991,2 45217  53.1586 294.3469 0001212  76.5451 283.5685 15.30210025338112
STARLINK-1191,45222,53.1573,6.46e-05,15.31862057,469.8145480806379,470.6993605795378,1 45222U 20012AW  26088.18908354  .00074037  00000+0  23620-2 0  9997,2 45222  53.1573 268.1505 0000646 308.5776  51.5167 15.31862057338502
STARLINK-1212,45223,53.0462,0.0004067,15.55597192,397.6603833137151,403.17405931733356,1 45223U 20012AX  26087.95303322  .00093991  00000+0  13379-2 0  9996,2 45223  53.0462 257.1080 0004067 209.3314 150.7469 15.55597192338634
STARLINK-1215,45225,53.1585,0.0001184,15.30206205,474.38510777896045,476.0079771618175,1 45225U 20012AZ  26087.79292420  .00003989  00000+0  14670-3 0  9990,2 45225  53.1585 269.5717 0001184  94.5926 265.5210 15.30206205338406
STARLINK-1221,45227,53.0651,0.0003682,15.42636764,435.8210131671276,440.8406600820181,1 45227U 20012BB  26087.96336020  .00018559  00000+0  42799-3 0  9998,2 45227  53.0651 178.2332 0003682  73.3801 286.7608 15.42636764339689
STARLINK-1222,45228,53.0537,0.0002815,15.50737495,412.6594308128988,416.4837257424697,1 45228U 20012BC  26088.15624237  .00035393  00000+0  60996-3 0  9995,2 45228  53.0537 249.3925 0002815 143.9404 216.1795 15.50737495338642
STARLINK-1226,45229,53.1577,0.0001554,15.37095138,453.64260550211384,455.76625261826484,1 45229U 20012BD  26088.25003471  .00036785  00000+0  10042-2 0  9990,2 45229  53.1577 267.5640 0001554 102.2831 194.4098 15.37095138  5905
STARLINK-1227,45230,53.1566,9.33e-05,15.37024117,454.27738628848147,455.55243377489387,1 45230U 20012BE  26088.25003471  .00036372  00000+0  99541-3 0  9996,2 45230  53.1566 267.7243 0000933  93.5386 128.9159 15.37024117  5867
STARLINK-1246,45235,53.1586,0.0001322,15.30207596,474.28637908107703,476.09839937158813,1 45235U 20012BK  26088.02484111  .00002838  00000+0  10787-3 0  9995,2 45235  53.1586 309.4385 0001322  80.2177 279.8973 15.30207596337932
STARLINK-1270,45237,53.0466,0.0001706,15.49976001,415.6369921161968,417.9554233266708,1 45237U 20012BM  26087.75099455  .00097764  00000+0  17033-2 0  9991,2 45237  53.0466 256.2906 0001706 207.2915 152.8003 15.49976001338620
STARLINK-1279,45360,53.0437,0.0002788,15.60998789,382.88525844917785,386.65625581455424,1 45360U 20019A   26088.05796977  .00115400  00000+0  13359-2 0  9997,2 45360  53.0437   4.4753 0002788 171.8920 188.2138 15.60998789333695
STARLINK-1301,45361,53.0432,7.04e-05,15.67415852,365.82492154728425,366.774538238853,1 45361U 20019B   26088.06036983  .00074198  00000+0  67199-3 0  9993,2 45361  53.0432   8.8395 0000704 248.4217 111.6723 15.67415852333644
STARLINK-1262,45366,53.157,0.0001584,15.29366801,476.61801562147866,478.78994604420586,1 45366U 20019G   26088.21166435  .00000515  00000+0  30164-4 0  9996,2 45366  53.1570  74.5436 0001584  91.4345 268.6836 15.29366801332749
STARLINK-1273,45367,53.051,0.0004093,15.46957266,422.84831481831316,428.4178810204694,1 45367U 20019H   26088.19169676  .00098711  00000+0  19102-2 0  9996,2 45367  53.0510  61.8472 0004093  71.4916 288.6535 15.46957266332919
STARLINK-1277,45369,53.0501,0.0005968,15.5209472,406.5595657287131,414.6626154496407,1 45369U 20019K   26088.16051175  .00114042  00000+0  18366-2 0  9996,2 45369  53.0501  59.1119 0005968  79.4722 280.6959 15.52094720332954
STARLINK-1281,45370,53.1605,0.0001364,15.30202686,474.27225339085544,476.14184564756397,1 45370U 20019L   26088.20055257  .00000875  00000+0  41673-4 0  9995,2 45370  53.1605  74.6630 0001364  99.9255 260.1899 15.30202686332747
STARLINK-1300,45374,53.1613,0.0001472,15.30210334,474.17540524896685,476.193023014408,1 45374U 20019Q   26088.22266932  .00002352  00000+0  91486-4 0  9994,2 45374  53.1613  74.5644 0001472  99.3877 260.7290 15.30210334332748
STARLINK-1302,45375,53.0516,0.0003481,15.57100003,393.69694530828565,398.413137807619,1 45375U 20019R   26088.17585063  .00129813  00000+0  17375-2 0  9993,2 45375  53.0516  57.5083 0003481  37.1079 323.0172 15.57100003332971
STARLINK-1304,45376,53.0487,0.0003721,15.51404591,410.0973766026991,415.1510611017693,1 45376U 20019S   26088.18429225  .00110613  00000+0  18276-2 0  9991,2 45376  53.0487  55.9715 0003721  64.1722 295.9670 15.51404591332990
STARLINK-1305,45377,53.043,0.000413,15.56634794,394.60634571953597,400.20294311782527,1 45377U 20019T   26088.12184993  .00108547  00000+0  14832-2 0  9993,2 45377  53.0430  38.3173 0004130 144.4095 215.7192 15.56634794333245
STARLINK-1319,45379,53.0445,0.0003,15.67555338,363.8764188539162,367.9228408318222,1 45379U 20019V   26088.19532301  .00087393  00000+0  78476-3 0  9992,2 45379  53.0445  33.7826 0003000 110.9386 249.1951 15.67555338333313
STARLINK-1266,45383,53.0506,0.0005087,15.48297231,418.2479281730584,425.16608946763154,1 45383U 20019Z   26088.10548036  .00080125  00000+0  14850-2 0  9991,2 45383  53.0506  40.2246 0005087  82.6009 277.5576 15.48297231333209
STARLINK-1267,45384,53.0489,0.0001478,15.53091349,406.7035758205393,408.70947116608295,1 45384U 20019AA  26088.13896317  .00069504  00000+0  10895-2 0  9996,2 45384  53.0489  33.4763 0001478   5.5044 354.5981 15.53091349333306
STARLINK-1272,45386,53.0449,0.0003095,15.59519815,386.9513840087502,391.14027017872013,1 45386U 20019AC  26088.16936048  .00132900  00000+0  16234-2 0  9991,2 45386  53.0449  15.1684 0003095 166.8014 193.3079 15.59519815333562
STARLINK-1274,45387,53.0275,0.0002333,15.50145261,414.7164314174879,417.8867164560879,1 45387U 20019AD  26088.01831041  .00081855  00000+0  14217-2 0  9994,2 45387  53.0275  10.3265 0002333 266.0381  94.0360 15.50145261333613
STARLINK-1280,45388,53.0434,0.000192,15.67946962,363.4819777149605,366.0712565439371,1 45388U 20019AE  26088.10730410  .00076684  00000+0  67929-3 0  9996,2 45388  53.0434  26.9378 0001920 126.7598 233.3594 15.67946962333388
STARLINK-1283,45389,53.0447,9.42e-05,15.63425225,377.13518393785125,378.40799711630643,1 45389U 20019AF  26088.07112120  .00058720  00000+0  62586-3 0  9990,2 45389  53.0447  15.6066 0000942 104.4719 255.6399 15.63425225333552
STARLINK-1284,45390,53.048,0.0005131,15.55064918,398.4850575351711,405.442797106788,1 45390U 20019AG  26088.10757920  .00089373  00000+0  12981-2 0  9990,2 45390  53.0480  37.3206 0005131  93.2021 266.9576 15.55064918333241
STARLINK-1297,45395,53.0468,0.0005934,15.57826526,389.93013715003326,397.9672484502489,1 45395U 20019AM  26088.15120193  .00134215  00000+0  17464-2 0  9993,2 45395  53.0468  36.4646 0005934  95.3118 264.8570 15.57826526332446
STARLINK-1307,45397,53.0552,0.0002634,15.51556922,410.3911666981694,413.96830555476026,1 45397U 20019AP  26088.14876570  .00385364  00000+0  60963-2 0  9996,2 45397  53.0552  37.3029 0002634  88.2453 271.8857 15.51556922333074
STARLINK-1255,45399,53.0412,0.0001434,15.55353469,400.15318698683313,402.09747942399645,1 45399U 20019AR  26088.05187965  .00097701  00000+0  14026-2 0  9995,2 45399  53.0412   9.3036 0001434 107.8614 252.2553 15.55353469333444
STARLINK-1260,45404,53.1597,0.0001922,15.31079538,471.2734749738611,473.9068945036752,1 45404U 20019AW  26088.15910941  .00059274  00000+0  19438-2 0  9996,2 45404  53.1597  38.7852 0001922 127.1242 232.9935 15.31079538332952
STARLINK-1263,45405,53.16,9.38e-05,15.30205455,474.5559389246455,475.8416247173154,1 45405U 20019AX  26088.14996364  .00010809  00000+0  37647-3 0  9993,2 45405  53.1600  38.8801 0000938 107.8083 252.3020 15.30205455332956
